{"type": "FeatureCollection", "features": [ {"type": "Feature", "properties": {"norad_id": 36402, "name": "COSMOS 2460 (732)", "group": "gnss", "lat": -1.5550831359053068, "lon": -40.27300610409717, "alt_km": 19128.81830863121, "timestamp": "2025-12-22T05:49:03.741261+00:00", "meta": {"OBJECT_NAME": "COSMOS 2460 (732)", "OBJECT_ID": "2010-007C", "EPOCH": "2025-12-21T10:11:10.908384", "MEAN_MOTION": 2.13106318, "ECCENTRICITY": 0.0002509, "INCLINATION": 65.525, "RA_OF_ASC_NODE": 320.48, "ARG_OF_PERICENTER": 281.7872, "MEAN_ANOMALY": 168.9418, "EPHEMERIS_TYPE": 0, "CLASSIFICATION_TYPE": "U", "NORAD_CAT_ID": 36402, "ELEMENT_SET_NO": 999, "REV_AT_EPOCH": 12294, "BSTAR": 0, "MEAN_MOTION_DOT": -4.6e-07, "MEAN_MOTION_DDOT": 0}, "tle": {"line1": "1 36402U 10007C   25355.42443181 -.00000046  00000+0  00000+0 0  9999", "line2": "2 36402  65.5250 320.4800 0002509 281.7872 168.9418  2.13106318122948"}}, "geometry": {"type": "Point", "coordinates": [-40.27300610409717, -1.5550831359053068]}}, {"type": "Feature", "properties": {"norad_id": 36585, "name": "GPS BIIF-1  (PRN 25)", "group": "gnss", "lat": -20.74758873375895, "lon": 51.51119873912693, "alt_km": 20444.2639982171, "timestamp": "2025-12-22T05:49:03.741273+00:00", "meta": {"OBJECT_NAME": "GPS BIIF-1  (PRN 25)", "OBJECT_ID": "2010-022A", "EPOCH": "2025-12-21T16:53:11.559264", "MEAN_MOTION": 2.00553691, "ECCENTRICITY": 0.0126473, "INCLINATION": 54.2987, "RA_OF_ASC_NODE": 215.7124, "ARG_OF_PERICENTER": 65.1878, "MEAN_ANOMALY": 110.7719, "EPHEMERIS_TYPE": 0, "CLASSIFICATION_TYPE": "U", "NORAD_CAT_ID": 36585, "ELEMENT_SET_NO": 999, "REV_AT_EPOCH": 11403, "BSTAR": 0, "MEAN_MOTION_DOT": 7.5e-07, "MEAN_MOTION_DDOT": 0}, "tle": {"line1": "1 36585U 10022A   25355.70360601  .00000075  00000+0  00000+0 0  9995", "line2": "2 36585  54.2987 215.7124 0126473  65.1878 110.7719  2.00553691114030"}}, "geometry": {"type": "Point", "coordinates": [51.51119873912693, -20.74758873375895]}}, {"type": "Feature", "properties": {"norad_id": 36828, "name": "BEIDOU-2 IGSO-1 (C06)", "group": "gnss", "lat": 43.950041985648475, "lon": -59.433296611102385, "alt_km": 35792.91153908055, "timestamp": "2025-12-22T05:49:03.741285+00:00", "meta": {"OBJECT_NAME": "BEIDOU-2 IGSO-1 (C06)", "OBJECT_ID": "2010-036A", "EPOCH": "2025-12-20T21:47:26.739168", "MEAN_MOTION": 1.00282395, "ECCENTRICITY": 0.0051798, "INCLINATION": 54.2882, "RA_OF_ASC_NODE": 164.5739, "ARG_OF_PERICENTER": 215.2932, "MEAN_ANOMALY": 144.6604, "EPHEMERIS_TYPE": 0, "CLASSIFICATION_TYPE": "U", "NORAD_CAT_ID": 36828, "ELEMENT_SET_NO": 999, "REV_AT_EPOCH": 5631, "BSTAR": 0, "MEAN_MOTION_DOT": -5.5e-07, "MEAN_MOTION_DDOT": 0}, "tle": {"line1": "1 36828U 10036A   25354.90794837 -.00000055  00000+0  00000+0 0  9992", "line2": "2 36828  54.2882 164.5739 0051798 215.2932 144.6604  1.00282395 56317"}}, "geometry": {"type": "Point", "coordinates": [-59.433296611102385, 43.950041985648475]}}, {"type": "Feature", "properties": {"norad_id": 37210, "name": "BEIDOU-2 G4 (C04)", "group": "gnss", "lat": -3.21938449035769, "lon": -21.488455208321252, "alt_km": 35775.292165300816, "timestamp": "2025-12-22T05:49:03.741298+00:00", "meta": {"OBJECT_NAME": "BEIDOU-2 G4 (C04)", "OBJECT_ID": "2010-057A", "EPOCH": "2025-12-21T19:05:37.304160", "MEAN_MOTION": 1.00271975, "ECCENTRICITY": 0.0010412, "INCLINATION": 3.2057, "RA_OF_ASC_NODE": 69.9051, "ARG_OF_PERICENTER": 193.1092, "MEAN_ANOMALY": 274.086, "EPHEMERIS_TYPE": 0, "CLASSIFICATION_TYPE": "U", "NORAD_CAT_ID": 37210, "ELEMENT_SET_NO": 999, "REV_AT_EPOCH": 5551, "BSTAR": 0, "MEAN_MOTION_DOT": -9.1e-07, "MEAN_MOTION_DDOT": 0}, "tle": {"line1": "1 37210U 10057A   25355.79557065 -.00000091  00000+0  00000+0 0  9999", "line2": "2 37210   3.2057  69.9051 0010412 193.1092 274.0860  1.00271975 55510"}}, "geometry": {"type": "Point", "coordinates": [-21.488455208321252, -3.21938449035769]}}, {"type": "Feature", "properties": {"norad_id": 37256, "name": "BEIDOU-2 IGSO-2 (C07)", "group": "gnss", "lat": 9.185163202235103, "lon": -77.57535361486768, "alt_km": 35969.252732027, "timestamp": "2025-12-22T05:49:03.741311+00:00", "meta": {"OBJECT_NAME": "BEIDOU-2 IGSO-2 (C07)", "OBJECT_ID": "2010-068A", "EPOCH": "2025-12-21T17:07:55.147872", "MEAN_MOTION": 1.00283664, "ECCENTRICITY": 0.0048543, "INCLINATION": 47.8695, "RA_OF_ASC_NODE": 274.0391, "ARG_OF_PERICENTER": 216.3693, "MEAN_ANOMALY": 325.0635, "EPHEMERIS_TYPE": 0, "CLASSIFICATION_TYPE": "U", "NORAD_CAT_ID": 37256, "ELEMENT_SET_NO": 999, "REV_AT_EPOCH": 5501, "BSTAR": 0, "MEAN_MOTION_DOT": -1.86e-06, "MEAN_MOTION_DDOT": 0}, "tle": {"line1": "1 37256U 10068A   25355.71383273 -.00000186  00000+0  00000+0 0  9996", "line2": "2 37256  47.8695 274.0391 0048543 216.3693 325.0635  1.00283664 55019"}}, "geometry": {"type": "Point", "coordinates": [-77.57535361486768, 9.185163202235103]}}, {"type": "Feature", "properties": {"norad_id": 37384, "name": "BEIDOU-2 IGSO-3 (C08)", "group": "gnss", "lat": -52.672462539183364, "lon": -94.29146989101031, "alt_km": 35710.05984319612, "timestamp": "2025-12-22T05:49:03.741323+00:00", "meta": {"OBJECT_NAME": "BEIDOU-2 IGSO-3 (C08)", "OBJECT_ID": "2011-013A", "EPOCH": "2025-12-21T13:47:18.522816", "MEAN_MOTION": 1.00268792, "ECCENTRICITY": 0.00353792, "INCLINATION": 62.1546, "RA_OF_ASC_NODE": 41.8324, "ARG_OF_PERICENTER": 187.6182, "MEAN_ANOMALY": 175.1134, "EPHEMERIS_TYPE": 0, "CLASSIFICATION_TYPE": "U", "NORAD_CAT_ID": 37384, "ELEMENT_SET_NO": 999, "REV_AT_EPOCH": 5388, "BSTAR": 0, "MEAN_MOTION_DOT": -1.61e-06, "MEAN_MOTION_DDOT": 0}, "tle": {"line1": "1 37384U 11013A   25355.57451994 -.00000161  00000+0  00000+0 0  9992", "line2": "2 37384  62.1546  41.8324 0035379 187.6182 175.1134  1.00268792 53884"}}, "geometry": {"type": "Point", "coordinates": [-94.29146989101031, -52.672462539183364]}}, {"type": "Feature", "properties": {"norad_id": 37605, "name": "GSAT-8 (GAGAN/PRN 127)", "group": "gnss", "lat": 0.8372893403215286, "lon": -126.66830705600952, "alt_km": 35756.01747584616, "timestamp": "2025-12-22T05:49:03.741335+00:00", "meta": {"OBJECT_NAME": "GSAT-8 (GAGAN/PRN 127)", "OBJECT_ID": "2011-022A", "EPOCH": "2025-12-21T20:07:21.654048", "MEAN_MOTION": 1.00270795, "ECCENTRICITY": 0.0008853, "INCLINATION": 1.6718, "RA_OF_ASC_NODE": 84.101, "ARG_OF_PERICENTER": 185.6265, "MEAN_ANOMALY": 177.8366, "EPHEMERIS_TYPE": 0, "CLASSIFICATION_TYPE": "U", "NORAD_CAT_ID": 37605, "ELEMENT_SET_NO": 999, "REV_AT_EPOCH": 5144, "BSTAR": 0, "MEAN_MOTION_DOT": 1.06e-06, "MEAN_MOTION_DDOT": 0}, "tle": {"line1": "1 37605U 11022A   25355.83844507  .00000106  00000+0  00000+0 0  9991", "line2": "2 37605   1.6718  84.1010 0008853 185.6265 177.8366  1.00270795 51440"}}, "geometry": {"type": "Point", "coordinates": [-126.66830705600952, 0.8372893403215286]}}, {"type": "Feature", "properties": {"norad_id": 37763, "name": "BEIDOU-2 IGSO-4 (C09)", "group": "gnss", "lat": 52.08491960859859, "lon": -78.93158585091123, "alt_km": 36139.27666087004, "timestamp": "2025-12-22T05:49:03.741347+00:00", "meta": {"OBJECT_NAME": "BEIDOU-2 IGSO-4 (C09)", "OBJECT_ID": "2011-038A", "EPOCH": "2025-12-21T10:06:26.864064", "MEAN_MOTION": 1.00280083, "ECCENTRICITY": 0.01491557, "INCLINATION": 54.5854, "RA_OF_ASC_NODE": 167.2693, "ARG_OF_PERICENTER": 230.0944, "MEAN_ANOMALY": 299.1265, "EPHEMERIS_TYPE": 0, "CLASSIFICATION_TYPE": "U", "NORAD_CAT_ID": 37763, "ELEMENT_SET_NO": 999, "REV_AT_EPOCH": 5286, "BSTAR": 0, "MEAN_MOTION_DOT": 5.9e-07, "MEAN_MOTION_DDOT": 0}, "tle": {"line1": "1 37763U 11038A   25355.42114426  .00000059  00000+0  00000+0 0  9995", "line2": "2 37763  54.5854 167.2693 0149155 230.0944 299.1265  1.00280083 52867"}}, "geometry": {"type": "Point", "coordinates": [-78.93158585091123, 52.08491960859859]}}, {"type": "Feature", "properties": {"norad_id": 37846, "name": "GSAT0101 (GALILEO-PFM)", "group": "gnss", "lat": -22.319321284245714, "lon": -28.891294239219814, "alt_km": 23215.77431360571, "timestamp": "2025-12-22T05:49:03.741360+00:00", "meta": {"OBJECT_NAME": "GSAT0101 (GALILEO-PFM)", "OBJECT_ID": "2011-060A", "EPOCH": "2025-12-21T02:42:49.222944", "MEAN_MOTION": 1.70475776, "ECCENTRICITY": 0.00032099, "INCLINATION": 57.0509, "RA_OF_ASC_NODE": 346.5929, "ARG_OF_PERICENTER": 319.8352, "MEAN_ANOMALY": 40.1502, "EPHEMERIS_TYPE": 0, "CLASSIFICATION_TYPE": "U", "NORAD_CAT_ID": 37846, "ELEMENT_SET_NO": 999, "REV_AT_EPOCH": 8808, "BSTAR": 0, "MEAN_MOTION_DOT": -6.8e-07, "MEAN_MOTION_DDOT": 0}, "tle": {"line1": "1 37846U 11060A   25355.11306971 -.00000068  00000+0  00000+0 0  9997", "line2": "2 37846  57.0509 346.5929 0003209 319.8352  40.1502  1.70475776 88089"}}, "geometry": {"type": "Point", "coordinates": [-28.891294239219814, -22.319321284245714]}}, {"type": "Feature", "properties": {"norad_id": 37847, "name": "GSAT0102 (GALILEO-FM2)", "group": "gnss", "lat": 15.525048233182108, "lon": -3.06842973781214, "alt_km": 23213.937133891275, "timestamp": "2025-12-22T05:49:03.741372+00:00", "meta": {"OBJECT_NAME": "GSAT0102 (GALILEO-FM2)", "OBJECT_ID": "2011-060B", "EPOCH": "2025-12-21T07:52:29.961984", "MEAN_MOTION": 1.70476011, "ECCENTRICITY": 0.00051511, "INCLINATION": 57.0515, "RA_OF_ASC_NODE": 346.5875, "ARG_OF_PERICENTER": 312.968, "MEAN_ANOMALY": 224.4746, "EPHEMERIS_TYPE": 0, "CLASSIFICATION_TYPE": "U", "NORAD_CAT_ID": 37847, "ELEMENT_SET_NO": 999, "REV_AT_EPOCH": 8809, "BSTAR": 0, "MEAN_MOTION_DOT": -6.8e-07, "MEAN_MOTION_DDOT": 0}, "tle": {"line1": "1 37847U 11060B   25355.32812456 -.00000068  00000+0  00000+0 0  9991", "line2": "2 37847  57.0515 346.5875 0005151 312.9680 224.4746  1.70476011 88094"}}, "geometry": {"type": "Point", "coordinates": [-3.06842973781214, 15.525048233182108]}}]}